168P/Hergenrother,e,22.0103,356.4061,13.6801,3.608559,0.1437816,0.61299534,192.9510,06/06.0/2016,2000,g 15.5,4.0
# From MPC 94676
169P/NEAT,e,11.2990,176.1230,218.0071,2.603987,0.2345557,0.76722265,197.4479,06/06.0/2016,2000,g 16.0,2.0
# From MPC 89012
170P/Christensen,e,10.1279,142.9198,225.8296,4.197577,0.1146057,0.30402183,71.8766,06/06.0/2016,2000,g 12.0,4.0
# From MPC 79024
171P/Spahr,e,21.9431,101.7133,347.2096,3.556203,0.1469685,0.50227912,220.1416,06/06.0/2016,2000,g 13.5,4.0
# From MPC 93588
172P/Yeung,e,11.2317,30.8928,209.0073,4.216856,0.1138206,0.20863230,328.2042,06/06.0/2016,2000,g 13.0,4.0
# From MPC 75722
173P/Mueller,e,16.5020,100.4648,29.6138,5.690933,0.0725987,0.26184907,213.3020,06/06.0/2016,2000,g  7.5,4.0
# From MPC 92985
174P/Echeclus,e,4.3446,173.3352,162.8657,10.68026,0.0282378,0.45540232,11.6129,06/06.0/2016,2000,g  9.4,2.0
# From MPC 84321
175P/Hergenrother,e,6.0771,123.5780,56.0671,3.429560,0.1551838,0.43259890,172.0686,06/06.0/2016,2000,g 14.0,4.0
# From MPC 88331
176P/LINEAR,e,0.2348,345.9735,35.4060,3.195592,0.1725350,0.19276333,311.8038,06/06.0/2016,2000,g 15.1,2.0
# From MPC 75723
177P/Barnard,e,31.1717,272.0677,60.6116,24.40344,0.0081757,0.95410279,29.2304,06/06.0/2016,2000,g 15.0,4.0
# From MPC 87068
178P/Hug-Bell,e,10.9706,103.4214,296.6805,3.659929,0.1407651,0.47522741,147.6537,06/06.0/2016,2000,g 13.5,4.0
# From MPC 75723
179P/Jedicke,e,19.8698,115.5549,296.3321,5.944493,0.0680036,0.30545356,211.6562,06/06.0/2016,2000,g  2.5,8.0
# From MPC 10028
180P/NEAT,e,16.8714,84.5698,94.8604,3.858121,0.1300589,0.35478926,22.9388,06/06.0/2016,2000,g 11.0,4.0
# From MPC 89012
181P/Shoemaker-Levy,e,17.2874,36.0458,335.6480,3.858421,0.1300438,0.70645318,94.5371,06/06.0/2016,2000,g 11.5,4.0
# From MPC 88331
182P/LONEOS,e,16.2396,72.8004,53.8684,2.962161,0.1933264,0.65962504,300.1401,06/06.0/2016,2000,g 18.0,4.0
# From NK 2735
183P/Korlevic-Juric,e,18.7540,5.8441,161.1202,4.486311,0.1037218,0.13665951,305.8160,06/06.0/2016,2000,g 12.5,2.0
# From MPC 86232
184P/Lovas,e,4.5587,173.6637,186.7520,3.741985,0.1361604,0.56977378,143.5448,06/06.0/2016,2000,g 13.5,4.0
# From MPC 94676
185P/Petriew,e,13.9938,214.0983,181.9202,3.100902,0.1804979,0.69868794,251.5555,06/06.0/2016,2000,g 15.0,4.0
# From MPC 10028
186P/Garradd,e,28.4999,327.3130,284.9993,4.984913,0.0885559,0.12108208,264.7237,06/06.0/2016,2000,g  7.5,4.0
# From MPC 75724
187P/LINEAR,e,13.6082,110.7776,134.7383,4.586297,0.1003485,0.15745614,286.2235,06/06.0/2016,2000,g  9.0,4.0
# From MPC 10028
188P/LINEAR-Mueller,e,10.5116,358.9810,26.7919,4.383529,0.1073911,0.41486402,332.4964,06/06.0/2016,2000,g 11.5,4.0
# From NK 2724
189P/NEAT,e,20.0772,281.8409,16.1498,2.946821,0.1948379,0.58859861,277.0333,06/06.0/2016,2000,g 19.0,4.0
# From MPC 75724
190P/Mueller,e,2.1727,335.5536,50.4190,4.242422,0.1127933,0.52074726,6.6705,06/06.0/2016,2000,g 13.0,4.0
# From MPC 92277
191P/McNaught,e,8.6841,105.7594,275.9509,3.552011,0.1472287,0.42094334,111.7879,06/06.0/2016,2000,g 13.0,4.0
# From MPC 75724
192P/Shoemaker-Levy,e,24.5187,51.6592,312.9652,6.476528,0.0597986,0.77157867,185.4916,06/06.0/2016,2000,g 15.0,4.0
# From MPC 91618
193P/LINEAR-NEAT,e,10.6871,335.1933,8.4167,3.574656,0.1458320,0.39398705,81.5880,06/06.0/2016,2000,g 14.0,4.0
# From MPC 98566
194P/LINEAR,e,11.1379,351.9941,130.7070,4.000343,0.1231851,0.57561265,11.7720,06/06.0/2016,2000,g 16.0,4.0
# From MPC 75724
195P/Hill,e,36.3535,243.1311,249.6987,6.482105,0.0597214,0.31574376,160.7187,06/06.0/2016,2000,g  8.5,4.0
# From MPC 92985
196P/Tichy,e,19.3781,24.2511,12.0034,3.775313,0.1343614,0.43432337,47.9770,06/06.0/2016,2000,g 13.5,4.0
# From MPC 94676
197P/LINEAR,e,25.5534,66.3917,188.6944,2.865025,0.2032410,0.62990798,237.6576,06/06.0/2016,2000,g 16.5,2.0
# From MPC 65937
198P/ODAS,e,1.3394,358.3360,69.3301,3.599487,0.1443255,0.44327769,227.0754,06/06.0/2016,2000,g 12.5,4.0
# From MPC 75725
199P/Shoemaker,e,24.9023,92.3655,191.4386,5.911589,0.0685721,0.50395188,180.1970,06/06.0/2016,2000,g 10.0,4.0
# From MPC 75725
200P/Larsen,e,12.1064,234.8031,133.9544,4.930636,0.0900222,0.33078536,256.6560,06/06.0/2016,2000,g  9.0,4.0
# From MPC 93588
201P/LONEOS,e,7.0439,35.1829,25.0060,3.457022,0.1533384,0.61366924,77.9237,06/06.0/2016,2000,g 14.0,4.0
# From MPC 75725
202P/Scotti,e,2.1882,194.5260,255.7399,3.769929,0.1346494,0.33200366,359.3259,06/06.0/2016,2000,g 13.5,4.0
# From MPC 75725
203P/Korlevic,e,2.9760,290.3915,155.1253,4.662415,0.0979011,0.31520713,225.9967,06/06.0/2016,2000,g 14.5,2.0
# From MPC 98566
204P/LINEAR-NEAT,e,6.5878,109.0614,355.0954,3.657314,0.1409161,0.47241885,24.9947,06/06.0/2016,2000,g 14.0,4.0
# From MPC 98566
205P/Giacobini,e,15.2851,179.6184,154.2129,3.546923,0.1475456,0.56680775,57.4046,06/06.0/2016,2000,g 13.0,4.0
# From MPC 75725
206P/Barnard-Boattini,e,33.0883,203.8984,181.7129,3.240975,0.1689237,0.64706610,109.4106,06/06.0/2016,2000,g 19.0,4.0
# From MPC 75725
207P/NEAT,e,10.1608,200.5467,271.2820,3.876602,0.1291300,0.75817636,356.7351,06/06.0/2016,2000,g 16.0,4.0
# From MPC 75725
208P/McMillan,e,4.4075,36.4149,310.5155,4.052799,0.1208013,0.37214815,356.8885,06/06.0/2016,2000,g 12.5,4.0
# From MPC 90771
209P/LINEAR,e,21.2458,62.7862,152.4365,2.963120,0.1932325,0.67311744,147.1380,06/06.0/2016,2000,g 17.0,2.0
# From MPC 89013
210P/Christensen,e,10.2380,93.8278,345.8273,3.170383,0.1745969,0.83223879,115.0383,06/06.0/2016,2000,g 13.5,4.0
# From MPC 96868
211P/Hill,e,18.8844,117.2639,4.4426,3.559923,0.1467382,0.33973458,19.1711,06/06.0/2016,2000,g 12.5,4.0
# From MPC 75726
212P/NEAT,e,22.4278,98.8862,15.0775,3.916707,0.1271518,0.58011440,347.7415,06/06.0/2016,2000,g 17.0,2.0
# From MPC 88331
213P/Van Ness,e,10.3810,311.3914,5.3433,3.351231,0.1606562,0.40750339,283.6856,06/06.0/2016,2000,g 10.5,4.0
# From MPC 92986
214P/LINEAR,e,15.2051,348.2659,190.2386,3.611475,0.1436075,0.48731963,29.6288,06/06.0/2016,2000,g 13.0,4.0
# From MPC 81861
215P/NEAT,e,10.1272,59.6888,256.5130,4.363756,0.1081218,0.19043841,228.1042,06/06.0/2016,2000,g 11.0,4.0
# From MPC 10028
216P/LINEAR,e,9.0483,359.8731,151.5931,3.876810,0.1291196,0.44548348,0.7547,06/06.0/2016,2000,g 13.0,4.0
# From MPC 75726
217P/LINEAR,e,12.8562,125.4576,246.9543,3.955113,0.1253042,0.68762017,309.1770,06/06.0/2016,2000,g 12.0,4.0
# From MPC 95214
218P/LINEAR,e,2.7252,176.0207,59.6726,3.096068,0.1809207,0.62168316,74.1392,06/06.0/2016,2000,g 16.0,4.0
# From MPC 10028
219P/LINEAR,e,11.5290,231.0293,107.4197,3.651796,0.1412357,0.35232107,323.3250,06/06.0/2016,2000,g 11.0,4.0
# From MPC 96868
220P/McNaught,e,8.1253,150.1122,180.6493,3.115822,0.1792029,0.50131838,64.2065,06/06.0/2016,2000,g 15.0,4.0
# From MPC 93589
221P/LINEAR,e,11.4240,229.7493,39.9515,3.460375,0.1531156,0.49192304,50.5839,06/06.0/2016,2000,g 14.5,4.0
# From MPC 92277
222P/LINEAR,e,5.1789,6.7615,346.3298,2.883920,0.2012469,0.72260133,141.3120,06/06.0/2016,2000,g 20.0,4.0
# From MPC 75727
223P/Skiff,e,27.0168,346.8009,37.8798,4.154231,0.1164040,0.41480559,247.5797,06/06.0/2016,2000,g 12.0,4.0
# From MPC 75727
224P/LINEAR-NEAT,e,13.4261,40.4752,16.3229,3.412650,0.1563387,0.41590284,1.9361,06/06.0/2016,2000,g 15.5,4.0
# From MPC 75727
225P/LINEAR,e,21.3350,14.1821,3.9252,3.654832,0.1410597,0.63760454,349.8495,06/06.0/2016,2000,g 18.0,4.0
# From MPC 84322
226P/Pigott-LINEAR-Kowalski,e,44.0029,54.0073,341.1269,3.770686,0.1346088,0.52890520,347.7332,06/06.0/2016,2000,g 12.5,4.0
# From MPC 75727
227P/Catalina-LINEAR,e,6.5266,49.8004,90.2332,3.585368,0.1451789,0.50126005,304.6702,06/06.0/2016,2000,g 16.5,2.0
# From MPC 75728
228P/LINEAR,e,7.9111,31.0121,115.2348,4.176422,0.1154775,0.17810176,201.5201,06/06.0/2016,2000,g 14.5,2.0
# From MPC 75728
229P/Gibbs,e,26.0690,157.9076,224.1839,3.935390,0.1262474,0.37604445,315.9561,06/06.0/2016,2000,g 13.0,4.0
# From MPC 95735
230P/LINEAR,e,14.6515,112.3909,308.9425,3.400422,0.1571827,0.56316991,31.5770,06/06.0/2016,2000,g 13.0,4.0
# From MPC 75728
231P/LINEAR-NEAT,e,12.3301,133.0586,42.4717,4.022474,0.1221699,0.24801481,225.3730,06/06.0/2016,2000,g 14.5,2.0
# From MPC 75728
232P/Hill,e,14.6290,56.0482,53.6058,4.486714,0.1037078,0.33547400,252.7216,06/06.0/2016,2000,g 11.5,4.0
# From MPC 92986
233P/La Sagra,e,11.2801,74.9349,27.2168,3.031737,0.1867097,0.41102139,64.7212,06/06.0/2016,2000,g 15.0,4.0
# From MPC 82322
234P/LINEAR,e,11.5263,179.7229,358.1427,3.809057,0.1325799,0.25235794,312.1445,06/06.0/2016,2000,g 12.0,4.0
# From MPC 75728
235P/LINEAR,e,8.9035,204.4562,333.6547,3.991978,0.1235725,0.31522553,279.7803,06/06.0/2016,2000,g 12.0,4.0
# From MPC 75728
236P/LINEAR,e,16.3326,245.6733,119.2699,3.732077,0.1367030,0.50755136,287.2409,06/06.0/2016,2000,g 14.0,4.0
# From MPC 99821
237P/LINEAR,e,14.0225,245.4341,25.0302,3.509916,0.1498853,0.43449293,340.8672,06/06.0/2016,2000,g 14.5,2.0
# From MPC 89731
238P/Read,e,1.2647,51.6525,324.9599,3.165228,0.1750235,0.25247025,335.7286,06/06.0/2016,2000,g 14.5,4.0
# From MPC 75729
239P/LINEAR,e,11.3066,255.9575,220.3745,4.470188,0.1042834,0.63154432,261.1547,06/06.0/2016,2000,g 17.5,2.0
# From MPC 94676
240P/NEAT,e,23.5071,74.9436,352.1602,3.870684,0.1294263,0.44909838,268.1977,06/06.0/2016,2000,g 12.0,4.0
# From MPC 75729
241P/LINEAR,e,20.8727,305.7660,110.5535,4.956713,0.0893127,0.60893317,192.2910,06/06.0/2016,2000,g 13.5,4.0
# From MPC 81861
242P/Spahr,e,32.5227,180.7051,247.1670,5.489210,0.0766371,0.27596121,117.2535,06/06.0/2016,2000,g  8.0,4.0
# From MPC 82322
243P/NEAT,e,7.6409,87.6645,283.5659,3.829034,0.1315438,0.35868893,253.2712,06/06.0/2016,2000,g 12.5,4.0
# From MPC 88331
244P/Scotti,e,2.2579,354.0961,92.9064,4.895499,0.0909931,0.19757533,145.4940,06/06.0/2016,2000,g  9.0,4.0
# From MPC 75729
245P/WISE,e,21.2438,316.7780,316.7640,4.036768,0.1215216,0.45862541,285.5369,06/06.0/2016,2000,g 14.0,4.0
# From MPC 93589
246P/NEAT,e,15.9773,78.7484,175.9926,4.023201,0.1221368,0.28563216,149.5600,06/06.0/2016,2000,g 10.5,4.0
# From MPC 75729
247P/LINEAR,e,13.6626,54.0356,47.4849,3.968983,0.1246480,0.62542736,246.7085,06/06.0/2016,2000,g 16.5,2.0
# From MPC 75730
